SL-14 R/B               
1 21423U 91042B   26059.91183201  .00000534  00000+0  64603-4 0  9999
2 21423  82.4908 228.4143 0015570 270.0853  89.8577 14.81818757851774
ERS-1                   
1 21574U 91050A   26059.93892104  .00000364  00000+0  13118-3 0  9991
2 21574  98.7887  77.9535 0031172 226.8376 133.0205 14.39441326814477
ARIANE 40 R/B           
1 21610U 91050F   26059.73330518  .00000314  00000+0  10657-3 0  9996
2 21610  98.2032 112.3052 0004378 100.5889 259.5796 14.42885841817704
INTERCOSMOS 25          
1 21819U 91086A   26059.82417336  .00001595  00000+0  30619-3 0  9992
2 21819  82.6068 315.3659 1487087 136.0317 236.9261 12.11970553495619
SL-8 R/B                
1 21876U 92008B   26059.70619258  .00000012  00000+0 -37805-5 0  9994
2 21876  82.9229 274.4626 0035108 157.8482 269.6898 13.75969906708188
SL-8 R/B                
1 21938U 92020B   26059.82936599  .00000071  00000+0  58559-4 0  9992
2 21938  82.9342 160.3381 0028030 324.5344 152.6797 13.75548308699918
USA 81                  
1 21949U 92023A   26059.71700659  .00000180  00000+0  59223-4 0  9991
2 21949  85.0102 136.6166 0002691  85.1107 275.0393 14.32364381 93503
COSMOS 2219             
1 22219U 92076A   26059.96168681  .00000354  00000+0  21029-3 0  9995
2 22219  71.0610  36.3124 0019426 218.6702 141.3030 14.14087196717143
SL-16 R/B               
1 22220U 92076B   26059.88196556  .00000215  00000+0  13080-3 0  9994
2 22220  70.9995 206.9253 0010749 112.5287   1.4029 14.16858910720584
COSMOS 2221             
1 22236U 92080A   26059.94313666  .00001860  00000+0  16271-3 0  9998
2 22236  82.5023 287.4602 0013276 218.0576 141.9710 14.96161376779486
SL-16 R/B               
1 22285U 92093B   26059.97640788 -.00000056  00000+0 -44480-5 0  9990
2 22285  71.0234  22.5558 0006178 303.0560  56.9969 14.15449739711925
COSMOS 2228             
1 22286U 92094A   26059.96526534  .00002268  00000+0  19367-3 0  9992
2 22286  82.5145 245.6656 0017360 335.6953  24.3448 14.97138301774754
