CCSDS_OMM_VERS = 2.0
CREATION_DATE  = 
ORIGINATOR     = 

OBJECT_NAME    = SL-14 R/B
OBJECT_ID      = 1991-042B
CENTER_NAME    = EARTH
REF_FRAME      = TEME
TIME_SYSTEM    = UTC
MEAN_ELEMENT_THEORY = SGP/SGP4

EPOCH          = 2026-02-28T21:53:02.285664
MEAN_MOTION    = 14.81818757
ECCENTRICITY   = .00155707
INCLINATION    = 82.4908
RA_OF_ASC_NODE = 228.4143
ARG_OF_PERICENTER = 270.0853
MEAN_ANOMALY   = 89.8577

EPHEMERIS_TYPE = 0
CLASSIFICATION_TYPE = U
NORAD_CAT_ID   = 21423
ELEMENT_SET_NO = 999
REV_AT_EPOCH   = 85177
BSTAR          = .6460347E-4
MEAN_MOTION_DOT = .534E-5
MEAN_MOTION_DDOT = 0

CCSDS_OMM_VERS = 2.0
CREATION_DATE  = 
ORIGINATOR     = 

OBJECT_NAME    = ERS-1
OBJECT_ID      = 1991-050A
CENTER_NAME    = EARTH
REF_FRAME      = TEME
TIME_SYSTEM    = UTC
MEAN_ELEMENT_THEORY = SGP/SGP4

EPOCH          = 2026-02-28T22:32:02.777856
MEAN_MOTION    = 14.39441326
ECCENTRICITY   = .00311725
INCLINATION    = 98.7887
RA_OF_ASC_NODE = 77.9535
ARG_OF_PERICENTER = 226.8376
MEAN_ANOMALY   = 133.0205

EPHEMERIS_TYPE = 0
CLASSIFICATION_TYPE = U
NORAD_CAT_ID   = 21574
ELEMENT_SET_NO = 999
REV_AT_EPOCH   = 81447
BSTAR          = .13117944E-3
MEAN_MOTION_DOT = .364E-5
MEAN_MOTION_DDOT = 0

CCSDS_OMM_VERS = 2.0
CREATION_DATE  = 
ORIGINATOR     = 

OBJECT_NAME    = ARIANE 40 R/B
OBJECT_ID      = 1991-050F
CENTER_NAME    = EARTH
REF_FRAME      = TEME
TIME_SYSTEM    = UTC
MEAN_ELEMENT_THEORY = SGP/SGP4

EPOCH          = 2026-02-28T17:35:57.567552
MEAN_MOTION    = 14.42885841
ECCENTRICITY   = .00043789
INCLINATION    = 98.2032
RA_OF_ASC_NODE = 112.3052
ARG_OF_PERICENTER = 100.5889
MEAN_ANOMALY   = 259.5796

EPHEMERIS_TYPE = 0
CLASSIFICATION_TYPE = U
NORAD_CAT_ID   = 21610
ELEMENT_SET_NO = 999
REV_AT_EPOCH   = 81770
BSTAR          = .10657353E-3
MEAN_MOTION_DOT = .314E-5
MEAN_MOTION_DDOT = 0

CCSDS_OMM_VERS = 2.0
CREATION_DATE  = 
ORIGINATOR     = 

OBJECT_NAME    = INTERCOSMOS 25
OBJECT_ID      = 1991-086A
CENTER_NAME    = EARTH
REF_FRAME      = TEME
TIME_SYSTEM    = UTC
MEAN_ELEMENT_THEORY = SGP/SGP4

EPOCH          = 2026-02-28T19:46:48.578304
MEAN_MOTION    = 12.11970553
ECCENTRICITY   = .14870876
INCLINATION    = 82.6068
RA_OF_ASC_NODE = 315.3659
ARG_OF_PERICENTER = 136.0317
MEAN_ANOMALY   = 236.9261

EPHEMERIS_TYPE = 0
CLASSIFICATION_TYPE = U
NORAD_CAT_ID   = 21819
ELEMENT_SET_NO = 999
REV_AT_EPOCH   = 49561
BSTAR          = .30619181E-3
MEAN_MOTION_DOT = .1595E-4
MEAN_MOTION_DDOT = 0

CCSDS_OMM_VERS = 2.0
CREATION_DATE  = 
ORIGINATOR     = 

OBJECT_NAME    = SL-8 R/B
OBJECT_ID      = 1992-008B
CENTER_NAME    = EARTH
REF_FRAME      = TEME
TIME_SYSTEM    = UTC
MEAN_ELEMENT_THEORY = SGP/SGP4

EPOCH          = 2026-02-28T16:56:55.038912
MEAN_MOTION    = 13.75969906
ECCENTRICITY   = .00351089
INCLINATION    = 82.9229
RA_OF_ASC_NODE = 274.4626
ARG_OF_PERICENTER = 157.8482
MEAN_ANOMALY   = 269.6898

EPHEMERIS_TYPE = 0
CLASSIFICATION_TYPE = U
NORAD_CAT_ID   = 21876
ELEMENT_SET_NO = 999
REV_AT_EPOCH   = 70818
BSTAR          = -.3780477E-5
MEAN_MOTION_DOT = .12E-6
MEAN_MOTION_DDOT = 0

CCSDS_OMM_VERS = 2.0
CREATION_DATE  = 
ORIGINATOR     = 

OBJECT_NAME    = SL-8 R/B
OBJECT_ID      = 1992-020B
CENTER_NAME    = EARTH
REF_FRAME      = TEME
TIME_SYSTEM    = UTC
MEAN_ELEMENT_THEORY = SGP/SGP4

EPOCH          = 2026-02-28T19:54:17.221536
MEAN_MOTION    = 13.75548308
ECCENTRICITY   = .00280304
INCLINATION    = 82.9342
RA_OF_ASC_NODE = 160.3381
ARG_OF_PERICENTER = 324.5344
MEAN_ANOMALY   = 152.6797

EPHEMERIS_TYPE = 0
CLASSIFICATION_TYPE = U
NORAD_CAT_ID   = 21938
ELEMENT_SET_NO = 999
REV_AT_EPOCH   = 69991
BSTAR          = .58558565E-4
MEAN_MOTION_DOT = .71E-6
MEAN_MOTION_DDOT = 0

CCSDS_OMM_VERS = 2.0
CREATION_DATE  = 
ORIGINATOR     = 

OBJECT_NAME    = USA 81
OBJECT_ID      = 1992-023A
CENTER_NAME    = EARTH
REF_FRAME      = TEME
TIME_SYSTEM    = UTC
MEAN_ELEMENT_THEORY = SGP/SGP4

EPOCH          = 2026-02-28T17:12:29.369376
MEAN_MOTION    = 14.32364381
ECCENTRICITY   = .00026918
INCLINATION    = 85.0102
RA_OF_ASC_NODE = 136.6166
ARG_OF_PERICENTER = 85.1107
MEAN_ANOMALY   = 275.0393

EPHEMERIS_TYPE = 0
CLASSIFICATION_TYPE = U
NORAD_CAT_ID   = 21949
ELEMENT_SET_NO = 999
REV_AT_EPOCH   = 9350
BSTAR          = .59223349E-4
MEAN_MOTION_DOT = .18E-5
MEAN_MOTION_DDOT = 0

CCSDS_OMM_VERS = 2.0
CREATION_DATE  = 
ORIGINATOR     = 

OBJECT_NAME    = COSMOS 2219
OBJECT_ID      = 1992-076A
CENTER_NAME    = EARTH
REF_FRAME      = TEME
TIME_SYSTEM    = UTC
MEAN_ELEMENT_THEORY = SGP/SGP4

EPOCH          = 2026-02-28T23:04:49.740384
MEAN_MOTION    = 14.14087196
ECCENTRICITY   = .00194262
INCLINATION    = 71.0610
RA_OF_ASC_NODE = 36.3124
ARG_OF_PERICENTER = 218.6702
MEAN_ANOMALY   = 141.3030

EPHEMERIS_TYPE = 0
CLASSIFICATION_TYPE = U
NORAD_CAT_ID   = 22219
ELEMENT_SET_NO = 999
REV_AT_EPOCH   = 71714
BSTAR          = .21029371E-3
MEAN_MOTION_DOT = .354E-5
MEAN_MOTION_DDOT = 0

CCSDS_OMM_VERS = 2.0
CREATION_DATE  = 
ORIGINATOR     = 

OBJECT_NAME    = SL-16 R/B
OBJECT_ID      = 1992-076B
CENTER_NAME    = EARTH
REF_FRAME      = TEME
TIME_SYSTEM    = UTC
MEAN_ELEMENT_THEORY = SGP/SGP4

EPOCH          = 2026-02-28T21:10:01.824384
MEAN_MOTION    = 14.16858910
ECCENTRICITY   = .00107494
INCLINATION    = 70.9995
RA_OF_ASC_NODE = 206.9253
ARG_OF_PERICENTER = 112.5287
MEAN_ANOMALY   = 1.4029

EPHEMERIS_TYPE = 0
CLASSIFICATION_TYPE = U
NORAD_CAT_ID   = 22220
ELEMENT_SET_NO = 999
REV_AT_EPOCH   = 72058
BSTAR          = .13079666E-3
MEAN_MOTION_DOT = .215E-5
MEAN_MOTION_DDOT = 0

CCSDS_OMM_VERS = 2.0
CREATION_DATE  = 
ORIGINATOR     = 

OBJECT_NAME    = COSMOS 2221
OBJECT_ID      = 1992-080A
CENTER_NAME    = EARTH
REF_FRAME      = TEME
TIME_SYSTEM    = UTC
MEAN_ELEMENT_THEORY = SGP/SGP4

EPOCH          = 2026-02-28T22:38:07.007424
MEAN_MOTION    = 14.96161376
ECCENTRICITY   = .00132769
INCLINATION    = 82.5023
RA_OF_ASC_NODE = 287.4602
ARG_OF_PERICENTER = 218.0576
MEAN_ANOMALY   = 141.9710

EPHEMERIS_TYPE = 0
CLASSIFICATION_TYPE = U
NORAD_CAT_ID   = 22236
ELEMENT_SET_NO = 999
REV_AT_EPOCH   = 77948
BSTAR          = .16270599E-3
MEAN_MOTION_DOT = .186E-4
MEAN_MOTION_DDOT = 0

CCSDS_OMM_VERS = 2.0
CREATION_DATE  = 
ORIGINATOR     = 

OBJECT_NAME    = SL-16 R/B
OBJECT_ID      = 1992-093B
CENTER_NAME    = EARTH
REF_FRAME      = TEME
TIME_SYSTEM    = UTC
MEAN_ELEMENT_THEORY = SGP/SGP4

EPOCH          = 2026-02-28T23:26:01.640832
MEAN_MOTION    = 14.15449739
ECCENTRICITY   = .00061786
INCLINATION    = 71.0234
RA_OF_ASC_NODE = 22.5558
ARG_OF_PERICENTER = 303.0560
MEAN_ANOMALY   = 56.9969

EPHEMERIS_TYPE = 0
CLASSIFICATION_TYPE = U
NORAD_CAT_ID   = 22285
ELEMENT_SET_NO = 999
REV_AT_EPOCH   = 71192
BSTAR          = -.4448047E-5
MEAN_MOTION_DOT = -.56E-6
MEAN_MOTION_DDOT = 0

CCSDS_OMM_VERS = 2.0
CREATION_DATE  = 
ORIGINATOR     = 

OBJECT_NAME    = COSMOS 2228
OBJECT_ID      = 1992-094A
CENTER_NAME    = EARTH
REF_FRAME      = TEME
TIME_SYSTEM    = UTC
MEAN_ELEMENT_THEORY = SGP/SGP4

EPOCH          = 2026-02-28T23:09:58.925376
MEAN_MOTION    = 14.97138301
ECCENTRICITY   = .00173609
INCLINATION    = 82.5145
RA_OF_ASC_NODE = 245.6656
ARG_OF_PERICENTER = 335.6953
MEAN_ANOMALY   = 24.3448

EPHEMERIS_TYPE = 0
CLASSIFICATION_TYPE = U
NORAD_CAT_ID   = 22286
ELEMENT_SET_NO = 999
REV_AT_EPOCH   = 77475
BSTAR          = .19366516E-3
MEAN_MOTION_DOT = .2268E-4
MEAN_MOTION_DDOT = 0

